NORAD_CAT_ID,OBJECT_NAME,OBJECT_TYPE,EPOCH,MEAN_MOTION,ECCENTRICITY,INCLINATION,RA_OF_ASC_NODE,ARG_OF_PERICENTER,MEAN_ANOMALY,BSTAR,MEAN_MOTION_DOT,MEAN_MOTION_DDOT,TLE_LINE0,TLE_LINE1,TLE_LINE2,SEMIMAJOR_AXIS,PERIOD,APOGEE,PERIGEE,DECAYED
51883.0,STARLINK-3576,PAYLOAD,2024-06-29 11:59:43,15.08818712,0.0001233,53.2154,254.4667,73.055,287.0577,-0.00016485,-2.909e-05,0.0,0 STARLINK-3576,1 51883U 22022AH  24181.49981272 -.00002909  00000-0 -16485-3 0  9990,2 51883  53.2154 254.4667 0001233  73.0550 287.0577 15.08818712129919,6917.945,95.439,540.663,538.957,0.0
51883.0,STARLINK-3576,PAYLOAD,2024-06-29 21:32:02,15.08829262,0.000122,53.2167,252.6822,76.2561,283.8567,4.2303e-05,3.85e-06,0.0,0 STARLINK-3576,1 51883U 22022AH  24181.89725410  .00000385  00000-0  42303-4 0  9997,2 51883  53.2167 252.6822 0001220  76.2561 283.8567 15.08829262129970,6917.913,95.438,540.622,538.934,0.0
51883.0,STARLINK-3576,PAYLOAD,2024-06-30 05:28:58,15.08836296,0.0001209,53.2152,251.195,70.75,289.3623,5.1664e-05,5.34e-06,0.0,0 STARLINK-3576,1 51883U 22022AH  24182.22844994  .00000534  00000-0  51664-4 0  9990,2 51883  53.2152 251.1950 0001209  70.7500 289.3623 15.08836296130026,6917.892,95.438,540.593,538.92,0.0
51883.0,STARLINK-3576,PAYLOAD,2024-06-30 11:50:30,15.08847888,0.0001246,53.2154,250.0064,71.3143,288.7984,0.00053292,8.205e-05,0.0,0 STARLINK-3576,1 51883U 22022AH  24182.49340827  .00008205  00000-0  53292-3 0  9996,2 51883  53.2154 250.0064 0001246  71.3143 288.7984 15.08847888130069,6917.856,95.437,540.583,538.859,0.0
51883.0,STARLINK-3576,PAYLOAD,2024-06-30 21:22:49,15.08858894,0.0001272,53.2152,248.2223,68.434,291.6788,0.00078958,0.00012307,0.0,0 STARLINK-3576,1 51883U 22022AH  24182.89084591  .00012307  00000-0  78958-3 0  9997,2 51883  53.2152 248.2223 0001272  68.4340 291.6788 15.08858894130129,6917.823,95.436,540.568,538.808,0.0
51883.0,STARLINK-3576,PAYLOAD,2024-07-01 03:44:21,15.08841856,0.0001757,53.2156,247.0304,69.2781,290.8399,1.2592e-06,-2.68e-06,0.0,0 STARLINK-3576,1 51883U 22022AH  24183.15580931 -.00000268  00000-0  12592-5 0  9994,2 51883  53.2156 247.0304 0001757  69.2781 290.8399 15.08841856130169,6917.875,95.437,540.955,538.524,0.0
51883.0,STARLINK-3576,PAYLOAD,2024-07-01 13:16:40,15.08844483,0.0001219,53.2152,245.2494,75.3677,284.745,0.0013721,0.00021619,0.0,0 STARLINK-3576,1 51883U 22022AH  24183.55324781  .00021619  00000-0  13721-2 0  9991,2 51883  53.2152 245.2494 0001219  75.3677 284.7450 15.08844483130226,6917.867,95.437,540.575,538.888,0.0
51883.0,STARLINK-3576,PAYLOAD,2024-07-01 21:13:36,15.08850598,0.0001327,53.2149,243.7624,77.5758,282.5383,0.0010299,0.00016146,0.0,0 STARLINK-3576,1 51883U 22022AH  24183.88444698  .00016146  00000-0  10299-2 0  9993,2 51883  53.2149 243.7624 0001327  77.5758 282.5383 15.08850598130274,6917.848,95.437,540.631,538.795,0.0
51883.0,STARLINK-3576,PAYLOAD,2024-07-02 13:07:27,15.08844653,0.0001177,53.2146,240.788,80.7392,279.3733,0.00046453,7.114e-05,0.0,0 STARLINK-3576,1 51883U 22022AH  24184.54684785  .00007114  00000-0  46453-3 0  9997,2 51883  53.2146 240.7880 0001177  80.7392 279.3733 15.08844653130374,6917.866,95.437,540.545,538.917,0.0
51883.0,STARLINK-3576,PAYLOAD,2024-07-03 12:58:14,15.08846449,0.0001191,53.2145,236.3261,83.0532,277.0595,0.00040249,6.125e-05,0.0,0 STARLINK-3576,1 51883U 22022AH  24185.54044798  .00006125  00000-0  40249-3 0  9990,2 51883  53.2145 236.3261 0001191  83.0532 277.0595 15.08846449130528,6917.861,95.437,540.55,538.902,0.0
51883.0,STARLINK-3576,PAYLOAD,2024-07-03 20:55:10,15.08850817,0.0001257,53.2147,234.8405,81.6055,278.5079,0.00041611,6.343e-05,0.0,0 STARLINK-3576,1 51883U 22022AH  24185.87164603  .00006343  00000-0  41611-3 0  9990,2 51883  53.2147 234.8405 0001257  81.6055 278.5079 15.08850817130572,6917.847,95.437,540.582,538.843,0.0
51883.0,STARLINK-3576,PAYLOAD,2024-07-04 03:16:42,15.08842828,0.0001575,53.2168,233.6508,97.1804,262.9368,0.00015454,2.173e-05,0.0,0 STARLINK-3576,1 51883U 22022AH  24186.13660845  .00002173  00000-0  15454-3 0  9992,2 51883  53.2168 233.6508 0001575  97.1804 262.9368 15.08842828130619,6917.872,95.437,540.826,538.647,0.0
51883.0,STARLINK-3576,PAYLOAD,2024-07-04 09:38:15,15.08840358,0.000146,53.2168,232.4621,91.9252,268.1907,2.9443e-05,1.81e-06,0.0,0 STARLINK-3576,1 51883U 22022AH  24186.40156938  .00000181  00000-0  29443-4 0  9996,2 51883  53.2168 232.4621 0001460  91.9252 268.1907 15.08840358130651,6917.879,95.438,540.754,538.734,0.0
51883.0,STARLINK-3576,PAYLOAD,2024-07-05 07:53:39,15.0884328,0.0001499,53.2171,228.2993,94.234,265.8823,7.9419e-05,9.76e-06,0.0,0 STARLINK-3576,1 51883U 22022AH  24187.32892771  .00000976  00000-0  79419-4 0  9990,2 51883  53.2171 228.2993 0001499  94.2340 265.8823 15.08843280130799,6917.87,95.437,540.772,538.698,0.0
51883.0,STARLINK-3576,PAYLOAD,2024-07-06 09:19:49,15.08839562,0.0001337,53.2155,223.5416,89.9022,270.2123,8.6267e-05,1.085e-05,0.0,0 STARLINK-3576,1 51883U 22022AH  24188.38876845  .00001085  00000-0  86267-4 0  9992,2 51883  53.2155 223.5416 0001337  89.9022 270.2123 15.08839562130957,6917.882,95.438,540.672,538.822,0.0
51883.0,STARLINK-3576,PAYLOAD,2024-07-06 18:52:08,15.08842949,0.0001334,53.2153,221.7573,89.3923,270.7222,7.3952e-05,8.89e-06,0.0,0 STARLINK-3576,1 51883U 22022AH  24188.78620557  .00000889  00000-0  73952-4 0  9991,2 51883  53.2153 221.7573 0001334  89.3923 270.7222 15.08842949131016,6917.871,95.437,540.659,538.814,0.0
51883.0,STARLINK-3576,PAYLOAD,2024-07-07 09:10:37,15.08831005,0.0001448,53.2174,219.0823,96.1181,263.9977,-5.8421e-06,-3.81e-06,0.0,0 STARLINK-3576,1 51883U 22022AH  24189.38237662 -.00000381  00000-0 -58421-5 0  9993,2 51883  53.2174 219.0823 0001448  96.1181 263.9977 15.08831005131107,6917.908,95.438,540.775,538.771,0.0
51883.0,STARLINK-3576,PAYLOAD,2024-07-08 12:12:10,15.08841601,0.0001446,53.2171,214.0266,93.7208,266.3949,9.8458e-05,1.279e-05,0.0,0 STARLINK-3576,1 51883U 22022AH  24190.50844960  .00001279  00000-0  98458-4 0  9992,2 51883  53.2171 214.0266 0001446  93.7208 266.3949 15.08841601131278,6917.875,95.437,540.741,538.74,0.0
51883.0,STARLINK-3576,PAYLOAD,2024-07-09 05:41:24,15.08835177,0.0001324,53.2161,210.7543,93.701,266.4134,0.00011925,1.61e-05,0.0,0 STARLINK-3576,1 51883U 22022AH  24191.23709384  .00001610  00000-0  11925-3 0  9995,2 51883  53.2161 210.7543 0001324  93.7010 266.4134 15.08835177131384,6917.895,95.438,540.676,538.844,0.0
51883.0,STARLINK-3576,PAYLOAD,2024-07-09 10:27:34,15.08836606,0.0001283,53.2158,209.8618,91.9163,268.1976,0.00010475,1.379e-05,0.0,0 STARLINK-3576,1 51883U 22022AH  24191.43581405  .00001379  00000-0  10475-3 0  9990,2 51883  53.2158 209.8618 0001283  91.9163 268.1976 15.08836606131410,6917.891,95.438,540.643,538.868,0.0
51883.0,STARLINK-3576,PAYLOAD,2024-07-10 07:07:35,15.0884095,0.0001284,53.2157,205.9961,90.8462,269.2677,3.8231e-05,3.21e-06,0.0,0 STARLINK-3576,1 51883U 22022AH  24192.29693387  .00000321  00000-0  38231-4 0  9995,2 51883  53.2157 205.9961 0001284  90.8462 269.2677 15.08840950131549,6917.877,95.437,540.631,538.854,0.0
51883.0,STARLINK-3576,PAYLOAD,2024-07-11 10:09:08,15.08842845,0.0001313,53.2157,200.9405,91.202,268.9122,8.9043e-05,1.13e-05,0.0,0 STARLINK-3576,1 51883U 22022AH  24193.42301036  .00001130  00000-0  89043-4 0  9994,2 51883  53.2157 200.9405 0001313  91.2020 268.9122 15.08842845131710,6917.872,95.437,540.645,538.828,0.0
51883.0,STARLINK-3576,PAYLOAD,2024-07-11 18:06:03,15.08843796,0.0001312,53.2157,199.4536,91.3868,268.7274,9.4583e-05,1.218e-05,0.0,0 STARLINK-3576,1 51883U 22022AH  24193.75420912  .00001218  00000-0  94583-4 0  9997,2 51883  53.2157 199.4536 0001312  91.3868 268.7274 15.08843796131764,6917.869,95.437,540.641,538.826,0.0
51883.0,STARLINK-3576,PAYLOAD,2024-07-12 09:59:55,15.08841489,0.0001443,53.2165,196.4802,94.5303,265.5854,5.4197e-05,5.75e-06,0.0,0 STARLINK-3576,1 51883U 22022AH  24194.41661180  .00000575  00000-0  54197-4 0  9997,2 51883  53.2165 196.4802 0001443  94.5303 265.5854 15.08841489131867,6917.876,95.437,540.739,538.743,0.0
51883.0,STARLINK-3576,PAYLOAD,2024-07-13 09:50:42,15.0884017,0.0001429,53.2167,192.0198,93.4052,266.7103,2.4964e-05,1.09e-06,0.0,0 STARLINK-3576,1 51883U 22022AH  24195.41021315  .00000109  00000-0  24964-4 0  9990,2 51883  53.2167 192.0198 0001429  93.4052 266.7103 15.08840170132016,6917.88,95.438,540.733,538.756,0.0
51883.0,STARLINK-3576,PAYLOAD,2024-07-14 04:55:20,15.08838272,0.0001375,53.2164,188.4511,92.622,267.4929,5.5394e-05,5.94e-06,0.0,0 STARLINK-3576,1 51883U 22022AH  24196.20509439  .00000594  00000-0  55394-4 0  9995,2 51883  53.2164 188.4511 0001375  92.6220 267.4929 15.08838272132136,6917.886,95.438,540.702,538.799,0.0
51883.0,STARLINK-3576,PAYLOAD,2024-07-14 06:30:43,15.08839581,0.0001363,53.2163,188.1542,91.5867,268.5281,6.4898e-05,7.45e-06,0.0,0 STARLINK-3576,1 51883U 22022AH  24196.27133340  .00000745  00000-0  64898-4 0  9993,2 51883  53.2163 188.1542 0001363  91.5867 268.5281 15.08839581132146,6917.882,95.438,540.69,538.804,0.0
51883.0,STARLINK-3576,PAYLOAD,2024-07-14 16:03:01,15.088437,0.0001359,53.2164,186.3702,91.2483,268.8665,7.9308e-05,9.75e-06,0.0,0 STARLINK-3576,1 51883U 22022AH  24196.66877029  .00000975  00000-0  79308-4 0  9992,2 51883  53.2164 186.3702 0001359  91.2483 268.8665 15.08843700132205,6917.869,95.437,540.674,538.794,0.0
51883.0,STARLINK-3576,PAYLOAD,2024-07-15 06:21:30,15.08835191,0.0001449,53.2175,183.6954,94.5527,265.563,2.7808e-05,1.55e-06,0.0,0 STARLINK-3576,1 51883U 22022AH  24197.26493857  .00000155  00000-0  27808-4 0  9990,2 51883  53.2175 183.6954 0001449  94.5527 265.5630 15.08835191132291,6917.895,95.438,540.762,538.758,0.0
51883.0,STARLINK-3576,PAYLOAD,2024-07-15 15:53:49,15.08841844,0.0001462,53.2178,181.9114,94.5748,265.5411,7.3855e-05,8.88e-06,0.0,0 STARLINK-3576,1 51883U 22022AH  24197.66237387  .00000888  00000-0  73855-4 0  9994,2 51883  53.2178 181.9114 0001462  94.5748 265.5411 15.08841844132359,6917.875,95.437,540.751,538.728,0.0
